{
  "type": "FeatureCollection",
  "features": [
    {
      "type": "Feature",
      "properties": {
        "norad_id": 42917,
        "name": "QZS-3 (QZSS/PRN 199)",
        "group": "gnss",
        "lat": 0.003184079907031008,
        "lon": 141.32207080178543,
        "alt_km": 35793.95025954726,
        "timestamp": "2025-12-21T18:54:58.739641+00:00",
        "meta_object_name": "QZS-3 (QZSS/PRN 199)",
        "meta_object_id": "2017-048A",
        "meta_epoch": "2025-12-21T13:48:06.780672",
        "meta_mean_motion": 1.00264916,
        "meta_eccentricity": 0.00018507,
        "meta_inclination": 0.0294,
        "meta_ra_of_asc_node": 161.3688,
        "meta_arg_of_pericenter": 118.9649,
        "meta_mean_anomaly": 144.0892,
        "meta_ephemeris_type": 0,
        "meta_classification_type": "U",
        "meta_norad_cat_id": 42917,
        "meta_element_set_no": 999,
        "meta_rev_at_epoch": 3047,
        "meta_bstar": 0,
        "meta_mean_motion_dot": 0,
        "meta_mean_motion_ddot": 0,
        "tle_line1": "1 42917U 17048A   25355.57507848  .00000000  00000+0  00000+0 0  9995",
        "tle_line2": "2 42917   0.0294 161.3688 0001850 118.9649 144.0892  1.00264916 30476"
      },
      "geometry": {
        "type": "Point",
        "coordinates": [
          141.32207080178543,
          0.003184079907031008
        ]
      }
    },
    {
      "type": "Feature",
      "properties": {
        "norad_id": 42939,
        "name": "COSMOS 2522 (752)",
        "group": "gnss",
        "lat": 30.66729394667734,
        "lon": -145.3007215534025,
        "alt_km": 19142.27217486905,
        "timestamp": "2025-12-21T18:54:58.739653+00:00",
        "meta_object_name": "COSMOS 2522 (752)",
        "meta_object_id": "2017-055A",
        "meta_epoch": "2025-12-20T19:18:35.639424",
        "meta_mean_motion": 2.13102071,
        "meta_eccentricity": 0.00063061,
        "meta_inclination": 64.0764,
        "meta_ra_of_asc_node": 197.9542,
        "meta_arg_of_pericenter": 223.7674,
        "meta_mean_anomaly": 136.256,
        "meta_ephemeris_type": 0,
        "meta_classification_type": "U",
        "meta_norad_cat_id": 42939,
        "meta_element_set_no": 999,
        "meta_rev_at_epoch": 6417,
        "meta_bstar": 0,
        "meta_mean_motion_dot": 9.9e-07,
        "meta_mean_motion_ddot": 0,
        "tle_line1": "1 42939U 17055A   25354.80457916  .00000099  00000+0  00000+0 0  9990",
        "tle_line2": "2 42939  64.0764 197.9542 0006306 223.7674 136.2560  2.13102071 64177"
      },
      "geometry": {
        "type": "Point",
        "coordinates": [
          -145.3007215534025,
          30.66729394667734
        ]
      }
    },
    {
      "type": "Feature",
      "properties": {
        "norad_id": 42965,
        "name": "QZS-4 (QZSS/PRN 195)",
        "group": "gnss",
        "lat": 15.061723430490119,
        "lon": 147.17148549765548,
        "alt_km": 36965.25447533922,
        "timestamp": "2025-12-21T18:54:58.739666+00:00",
        "meta_object_name": "QZS-4 (QZSS/PRN 195)",
        "meta_object_id": "2017-062A",
        "meta_epoch": "2025-12-20T12:23:32.377344",
        "meta_mean_motion": 1.00250818,
        "meta_eccentricity": 0.07514763,
        "meta_inclination": 40.2219,
        "meta_ra_of_asc_node": 345.7724,
        "meta_arg_of_pericenter": 271.7049,
        "meta_mean_anomaly": 153.5074,
        "meta_ephemeris_type": 0,
        "meta_classification_type": "U",
        "meta_norad_cat_id": 42965,
        "meta_element_set_no": 999,
        "meta_rev_at_epoch": 3001,
        "meta_bstar": 0,
        "meta_mean_motion_dot": -3.25e-06,
        "meta_mean_motion_ddot": 0,
        "tle_line1": "1 42965U 17062A   25354.51634696 -.00000325  00000+0  00000+0 0  9990",
        "tle_line2": "2 42965  40.2219 345.7724 0751476 271.7049 153.5074  1.00250818 30012"
      },
      "geometry": {
        "type": "Point",
        "coordinates": [
          147.17148549765548,
          15.061723430490119
        ]
      }
    },
    {
      "type": "Feature",
      "properties": {
        "norad_id": 43001,
        "name": "BEIDOU-3 M1 (C19)",
        "group": "gnss",
        "lat": -55.13498429336032,
        "lon": -39.602032189629774,
        "alt_km": 21514.235482664386,
        "timestamp": "2025-12-21T18:54:58.739681+00:00",
        "meta_object_name": "BEIDOU-3 M1 (C19)",
        "meta_object_id": "2017-069A",
        "meta_epoch": "2025-12-21T09:37:16.890816",
        "meta_mean_motion": 1.86231333,
        "meta_eccentricity": 0.00096297,
        "meta_inclination": 56.5338,
        "meta_ra_of_asc_node": 68.9479,
        "meta_arg_of_pericenter": 302.2645,
        "meta_mean_anomaly": 57.6886,
        "meta_ephemeris_type": 0,
        "meta_classification_type": "U",
        "meta_norad_cat_id": 43001,
        "meta_element_set_no": 999,
        "meta_rev_at_epoch": 5529,
        "meta_bstar": 0,
        "meta_mean_motion_dot": -3.5e-07,
        "meta_mean_motion_ddot": 0,
        "tle_line1": "1 43001U 17069A   25355.40088994 -.00000035  00000+0  00000+0 0  9990",
        "tle_line2": "2 43001  56.5338  68.9479 0009629 302.2645  57.6886  1.86231333 55292"
      },
      "geometry": {
        "type": "Point",
        "coordinates": [
          -39.602032189629774,
          -55.13498429336032
        ]
      }
    },
    {
      "type": "Feature",
      "properties": {
        "norad_id": 43002,
        "name": "BEIDOU-3 M2 (C20)",
        "group": "gnss",
        "lat": -45.71987158448645,
        "lon": 26.357001334839076,
        "alt_km": 21517.044977842997,
        "timestamp": "2025-12-21T18:54:58.739693+00:00",
        "meta_object_name": "BEIDOU-3 M2 (C20)",
        "meta_object_id": "2017-069B",
        "meta_epoch": "2025-12-21T08:08:32.718912",
        "meta_mean_motion": 1.86231017,
        "meta_eccentricity": 0.00066324,
        "meta_inclination": 56.5336,
        "meta_ra_of_asc_node": 68.9856,
        "meta_arg_of_pericenter": 329.1599,
        "meta_mean_anomaly": 30.8471,
        "meta_ephemeris_type": 0,
        "meta_classification_type": "U",
        "meta_norad_cat_id": 43002,
        "meta_element_set_no": 999,
        "meta_rev_at_epoch": 5528,
        "meta_bstar": 0,
        "meta_mean_motion_dot": -3.5e-07,
        "meta_mean_motion_ddot": 0,
        "tle_line1": "1 43002U 17069B   25355.33926758 -.00000035  00000+0  00000+0 0  9992",
        "tle_line2": "2 43002  56.5336  68.9856 0006632 329.1599  30.8471  1.86231017 55288"
      },
      "geometry": {
        "type": "Point",
        "coordinates": [
          26.357001334839076,
          -45.71987158448645
        ]
      }
    },
    {
      "type": "Feature",
      "properties": {
        "norad_id": 43055,
        "name": "GSAT0215 (GALILEO 19)",
        "group": "gnss",
        "lat": -38.27577675882965,
        "lon": -166.96524177838185,
        "alt_km": 23223.98101705185,
        "timestamp": "2025-12-21T18:54:58.739706+00:00",
        "meta_object_name": "GSAT0215 (GALILEO 19)",
        "meta_object_id": "2017-079A",
        "meta_epoch": "2025-12-21T06:45:20.639232",
        "meta_mean_motion": 1.70474038,
        "meta_eccentricity": 0.00012143,
        "meta_inclination": 55.1273,
        "meta_ra_of_asc_node": 226.4024,
        "meta_arg_of_pericenter": 349.3948,
        "meta_mean_anomaly": 10.7111,
        "meta_ephemeris_type": 0,
        "meta_classification_type": "U",
        "meta_norad_cat_id": 43055,
        "meta_element_set_no": 999,
        "meta_rev_at_epoch": 4995,
        "meta_bstar": 0,
        "meta_mean_motion_dot": 7.3e-07,
        "meta_mean_motion_ddot": 0,
        "tle_line1": "1 43055U 17079A   25355.28148888  .00000073  00000+0  00000+0 0  9996",
        "tle_line2": "2 43055  55.1273 226.4024 0001214 349.3948  10.7111  1.70474038 49952"
      },
      "geometry": {
        "type": "Point",
        "coordinates": [
          -166.96524177838185,
          -38.27577675882965
        ]
      }
    },
    {
      "type": "Feature",
      "properties": {
        "norad_id": 43056,
        "name": "GSAT0216 (GALILEO 20)",
        "group": "gnss",
        "lat": 37.401462521759335,
        "lon": 14.197682240224989,
        "alt_km": 23224.468560557838,
        "timestamp": "2025-12-21T18:54:58.739718+00:00",
        "meta_object_name": "GSAT0216 (GALILEO 20)",
        "meta_object_id": "2017-079B",
        "meta_epoch": "2025-12-19T19:30:44.926272",
        "meta_mean_motion": 1.70474153,
        "meta_eccentricity": 0.00023685,
        "meta_inclination": 55.1281,
        "meta_ra_of_asc_node": 226.4428,
        "meta_arg_of_pericenter": 323.7267,
        "meta_mean_anomaly": 36.3665,
        "meta_ephemeris_type": 0,
        "meta_classification_type": "U",
        "meta_norad_cat_id": 43056,
        "meta_element_set_no": 999,
        "meta_rev_at_epoch": 4994,
        "meta_bstar": 0,
        "meta_mean_motion_dot": 6.9e-07,
        "meta_mean_motion_ddot": 0,
        "tle_line1": "1 43056U 17079B   25353.81301998  .00000069  00000+0  00000+0 0  9992",
        "tle_line2": "2 43056  55.1281 226.4428 0002368 323.7267  36.3665  1.70474153 49946"
      },
      "geometry": {
        "type": "Point",
        "coordinates": [
          14.197682240224989,
          37.401462521759335
        ]
      }
    }
  ]
}